{
  "type": "FeatureCollection",
  "features": [
    {
      "type": "Feature",
      "properties": {
        "norad_id": 35987,
        "name": "COSMOS 2251 DEB",
        "group": "cosmos-2251-debris",
        "lat": 36.14094278239586,
        "lon": 143.6355155402788,
        "alt_km": 719.900641164495,
        "timestamp": "2025-12-07T20:38:14.460405+00:00",
        "meta_object_name": "COSMOS 2251 DEB",
        "meta_object_id": "1993-036AWD",
        "meta_epoch": "2025-12-01T10:54:45.006048",
        "meta_mean_motion": 14.43015331,
        "meta_eccentricity": 0.00459843,
        "meta_inclination": 73.9994,
        "meta_ra_of_asc_node": 347.6475,
        "meta_arg_of_pericenter": 116.8368,
        "meta_mean_anomaly": 243.7501,
        "meta_ephemeris_type": 0,
        "meta_classification_type": "U",
        "meta_norad_cat_id": 35987,
        "meta_element_set_no": 999,
        "meta_rev_at_epoch": 60902,
        "meta_bstar": 0.00096989757,
        "meta_mean_motion_dot": 3.265e-05,
        "meta_mean_motion_ddot": 0,
        "tle_line1": "1 35987U 93036AWD 25335.45468757  .00003265  00000+0  96990-3 0  9998",
        "tle_line2": "2 35987  73.9994 347.6475 0045984 116.8368 243.7501 14.43015331609028"
      },
      "geometry": {
        "type": "Point",
        "coordinates": [
          143.6355155402788,
          36.14094278239586
        ]
      }
    },
    {
      "type": "Feature",
      "properties": {
        "norad_id": 35989,
        "name": "COSMOS 2251 DEB",
        "group": "cosmos-2251-debris",
        "lat": -62.99145087658014,
        "lon": -101.3618671788763,
        "alt_km": 773.2792509857818,
        "timestamp": "2025-12-07T20:38:14.460415+00:00",
        "meta_object_name": "COSMOS 2251 DEB",
        "meta_object_id": "1993-036AWF",
        "meta_epoch": "2025-12-06T04:51:17.856864",
        "meta_mean_motion": 14.37086268,
        "meta_eccentricity": 0.00218316,
        "meta_inclination": 74.0371,
        "meta_ra_of_asc_node": 295.8482,
        "meta_arg_of_pericenter": 19.4894,
        "meta_mean_anomaly": 340.7089,
        "meta_ephemeris_type": 0,
        "meta_classification_type": "U",
        "meta_norad_cat_id": 35989,
        "meta_element_set_no": 999,
        "meta_rev_at_epoch": 87085,
        "meta_bstar": 0.00043011654,
        "meta_mean_motion_dot": 1.255e-05,
        "meta_mean_motion_ddot": 0,
        "tle_line1": "1 35989U 93036AWF 25340.20229001  .00001255  00000+0  43012-3 0  9990",
        "tle_line2": "2 35989  74.0371 295.8482 0021831  19.4894 340.7089 14.37086268870850"
      },
      "geometry": {
        "type": "Point",
        "coordinates": [
          -101.3618671788763,
          -62.99145087658014
        ]
      }
    },
    {
      "type": "Feature",
      "properties": {
        "norad_id": 35993,
        "name": "COSMOS 2251 DEB",
        "group": "cosmos-2251-debris",
        "lat": 34.42009665041748,
        "lon": -6.470248988605481,
        "alt_km": 688.8306088129584,
        "timestamp": "2025-12-07T20:38:14.460425+00:00",
        "meta_object_name": "COSMOS 2251 DEB",
        "meta_object_id": "1993-036AWK",
        "meta_epoch": "2025-12-06T18:15:16.240032",
        "meta_mean_motion": 14.6523351,
        "meta_eccentricity": 0.00292405,
        "meta_inclination": 74.0149,
        "meta_ra_of_asc_node": 344.3189,
        "meta_arg_of_pericenter": 175.7917,
        "meta_mean_anomaly": 184.3503,
        "meta_ephemeris_type": 0,
        "meta_classification_type": "U",
        "meta_norad_cat_id": 35993,
        "meta_element_set_no": 999,
        "meta_rev_at_epoch": 60355,
        "meta_bstar": 0.0012689745,
        "meta_mean_motion_dot": 6.854e-05,
        "meta_mean_motion_ddot": 0,
        "tle_line1": "1 35993U 93036AWK 25340.76060463  .00006854  00000+0  12690-2 0  9998",
        "tle_line2": "2 35993  74.0149 344.3189 0029240 175.7917 184.3503 14.65233510603555"
      },
      "geometry": {
        "type": "Point",
        "coordinates": [
          -6.470248988605481,
          34.42009665041748
        ]
      }
    },
    {
      "type": "Feature",
      "properties": {
        "norad_id": 35996,
        "name": "COSMOS 2251 DEB",
        "group": "cosmos-2251-debris",
        "lat": 66.643563692548,
        "lon": 155.0823876515727,
        "alt_km": 574.0674115615338,
        "timestamp": "2025-12-07T20:38:14.460434+00:00",
        "meta_object_name": "COSMOS 2251 DEB",
        "meta_object_id": "1993-036AWN",
        "meta_epoch": "2025-12-06T15:40:07.668192",
        "meta_mean_motion": 15.08900528,
        "meta_eccentricity": 0.00890114,
        "meta_inclination": 74.0155,
        "meta_ra_of_asc_node": 115.9821,
        "meta_arg_of_pericenter": 208.3907,
        "meta_mean_anomaly": 151.2421,
        "meta_ephemeris_type": 0,
        "meta_classification_type": "U",
        "meta_norad_cat_id": 35996,
        "meta_element_set_no": 999,
        "meta_rev_at_epoch": 72234,
        "meta_bstar": 0.001269926,
        "meta_mean_motion_dot": 0.00021998,
        "meta_mean_motion_ddot": 0,
        "tle_line1": "1 35996U 93036AWN 25340.65286653  .00021998  00000+0  12699-2 0  9995",
        "tle_line2": "2 35996  74.0155 115.9821 0089011 208.3907 151.2421 15.08900528722343"
      },
      "geometry": {
        "type": "Point",
        "coordinates": [
          155.0823876515727,
          66.643563692548
        ]
      }
    },
    {
      "type": "Feature",
      "properties": {
        "norad_id": 35997,
        "name": "COSMOS 2251 DEB",
        "group": "cosmos-2251-debris",
        "lat": 72.21722466820029,
        "lon": -46.6545916881919,
        "alt_km": 725.4206930721284,
        "timestamp": "2025-12-07T20:38:14.460444+00:00",
        "meta_object_name": "COSMOS 2251 DEB",
        "meta_object_id": "1993-036AWP",
        "meta_epoch": "2025-12-02T07:50:00.553056",
        "meta_mean_motion": 14.51236016,
        "meta_eccentricity": 0.00159085,
        "meta_inclination": 74.0439,
        "meta_ra_of_asc_node": 206.8774,
        "meta_arg_of_pericenter": 283.0639,
        "meta_mean_anomaly": 76.8746,
        "meta_ephemeris_type": 0,
        "meta_classification_type": "U",
        "meta_norad_cat_id": 35997,
        "meta_element_set_no": 999,
        "meta_rev_at_epoch": 70733,
        "meta_bstar": 0.00076938672,
        "meta_mean_motion_dot": 3.037e-05,
        "meta_mean_motion_ddot": 0,
        "tle_line1": "1 35997U 93036AWP 25336.32639529  .00003037  00000+0  76939-3 0  9991",
        "tle_line2": "2 35997  74.0439 206.8774 0015908 283.0639  76.8746 14.51236016707337"
      },
      "geometry": {
        "type": "Point",
        "coordinates": [
          -46.6545916881919,
          72.21722466820029
        ]
      }
    },
    {
      "type": "Feature",
      "properties": {
        "norad_id": 36005,
        "name": "COSMOS 2251 DEB",
        "group": "cosmos-2251-debris",
        "lat": -17.62427371473417,
        "lon": -71.64295236369291,
        "alt_km": 706.6296059693004,
        "timestamp": "2025-12-07T20:38:14.460454+00:00",
        "meta_object_name": "COSMOS 2251 DEB",
        "meta_object_id": "1993-036AWX",
        "meta_epoch": "2025-12-07T01:28:17.390496",
        "meta_mean_motion": 14.47343251,
        "meta_eccentricity": 0.00620577,
        "meta_inclination": 74.0264,
        "meta_ra_of_asc_node": 104.6297,
        "meta_arg_of_pericenter": 243.1316,
        "meta_mean_anomaly": 116.3491,
        "meta_ephemeris_type": 0,
        "meta_classification_type": "U",
        "meta_norad_cat_id": 36005,
        "meta_element_set_no": 999,
        "meta_rev_at_epoch": 87502,
        "meta_bstar": 0.00038164509,
        "meta_mean_motion_dot": 1.403e-05,
        "meta_mean_motion_ddot": 0,
        "tle_line1": "1 36005U 93036AWX 25341.06131239  .00001403  00000+0  38165-3 0  9998",
        "tle_line2": "2 36005  74.0264 104.6297 0062057 243.1316 116.3491 14.47343251875029"
      },
      "geometry": {
        "type": "Point",
        "coordinates": [
          -71.64295236369291,
          -17.62427371473417
        ]
      }
    },
    {
      "type": "Feature",
      "properties": {
        "norad_id": 36045,
        "name": "COSMOS 2251 DEB",
        "group": "cosmos-2251-debris",
        "lat": -39.67611706466365,
        "lon": -97.30797667359526,
        "alt_km": 693.1830629161341,
        "timestamp": "2025-12-07T20:38:14.460464+00:00",
        "meta_object_name": "COSMOS 2251 DEB",
        "meta_object_id": "1993-036AXG",
        "meta_epoch": "2025-12-06T12:35:46.842144",
        "meta_mean_motion": 14.69624154,
        "meta_eccentricity": 0.00486216,
        "meta_inclination": 73.7645,
        "meta_ra_of_asc_node": 71.3331,
        "meta_arg_of_pericenter": 87.3165,
        "meta_mean_anomaly": 273.3569,
        "meta_ephemeris_type": 0,
        "meta_classification_type": "U",
        "meta_norad_cat_id": 36045,
        "meta_element_set_no": 999,
        "meta_rev_at_epoch": 8297,
        "meta_bstar": 0.0044051955,
        "meta_mean_motion_dot": 0.00026747,
        "meta_mean_motion_ddot": 0,
        "tle_line1": "1 36045U 93036AXG 25340.52484771  .00026747  00000+0  44052-2 0  9993",
        "tle_line2": "2 36045  73.7645  71.3331 0048621  87.3165 273.3569 14.69624154 82974"
      },
      "geometry": {
        "type": "Point",
        "coordinates": [
          -97.30797667359526,
          -39.67611706466365
        ]
      }
    }
  ]
}